start=new Date('2023-02-06T00:00:00.000Z').valueOf();
sats=[{"TLE_LINE2":"2 51972  53.2162  52.6311 0001319  91.4683 268.6461 15.08843977 50929","CENTER_NAME":"EARTH","FILE":"3774172","ARG_OF_PERICENTER":"91.4683","SEMIMAJOR_AXIS":"6917.868","OBJECT_TYPE":"PAYLOAD","RA_OF_ASC_NODE":"52.6311","REF_FRAME":"TEME","MEAN_ANOMALY":"268.6461","MEAN_MOTION_DDOT":"0.0000000000000","BSTAR":"0.00004710500000","OBJECT_ID":"2022-025S","DECAY_DATE":null,"EPHEMERIS_TYPE":"0","REV_AT_EPOCH":"5092","ELEMENT_SET_NO":"999","ECCENTRICITY":"0.00013190","TIME_SYSTEM":"UTC","SITE":"AFETR","LAUNCH_DATE":"2022-03-09","APOAPSIS":"540.646","EPOCH":"2023-02-05T18:05:37.678848","MEAN_MOTION_DOT":"0.00000462","TLE_LINE1":"1 51972U 22025S   23036.75390832  .00000462  00000-0  47105-4 0  9999","INCLINATION":"53.2162","MEAN_MOTION":"15.08843977","PERIAPSIS":"538.821","COUNTRY_CODE":"US","GP_ID":"224558985","OBJECT_NAME":"STARLINK-3671","MEAN_ELEMENT_THEORY":"SGP4","RCS_SIZE":"LARGE","NORAD_CAT_ID":"51972","PERIOD":"95.437","CLASSIFICATION_TYPE":"U"},{"REV_AT_EPOCH":"5092","EPHEMERIS_TYPE":"0","DECAY_DATE":null,"OBJECT_ID":"2022-025T","TIME_SYSTEM":"UTC","ECCENTRICITY":"0.00016300","ELEMENT_SET_NO":"999","REF_FRAME":"TEME","RA_OF_ASC_NODE":"52.5919","OBJECT_TYPE":"PAYLOAD","SEMIMAJOR_AXIS":"6917.867","BSTAR":"0.00001806300000","MEAN_MOTION_DDOT":"0.0000000000000","MEAN_ANOMALY":"281.3786","ARG_OF_PERICENTER":"78.7390","TLE_LINE2":"2 51973  53.2193  52.5919 0001630  78.7390 281.3786 15.08844368 50923","CENTER_NAME":"EARTH","FILE":"3774172","CLASSIFICATION_TYPE":"U","RCS_SIZE":"LARGE","MEAN_ELEMENT_THEORY":"SGP4","PERIOD":"95.437","NORAD_CAT_ID":"51973","MEAN_MOTION":"15.08844368","PERIAPSIS":"538.604","INCLINATION":"53.2193","OBJECT_NAME":"STARLINK-3679","GP_ID":"224559720","COUNTRY_CODE":"US","LAUNCH_DATE":"2022-03-09","SITE":"AFETR","TLE_LINE1":"1 51973U 22025T   23036.76127058 -.00000001  00000-0  18063-4 0  9990","MEAN_MOTION_DOT":"-0.00000001","EPOCH":"2023-02-05T18:16:13.778112","APOAPSIS":"540.860"},{"GP_ID":"224558483","OBJECT_NAME":"STARLINK-3672","COUNTRY_CODE":"US","INCLINATION":"53.2189","PERIAPSIS":"538.835","MEAN_MOTION":"15.08856589","MEAN_MOTION_DOT":"0.00001084","TLE_LINE1":"1 51974U 22025U   23036.75021897  .00001084  00000-0  86163-4 0  9991","APOAPSIS":"540.554","EPOCH":"2023-02-05T18:00:18.919008","LAUNCH_DATE":"2022-03-09","SITE":"AFETR","CLASSIFICATION_TYPE":"U","PERIOD":"95.437","NORAD_CAT_ID":"51974","RCS_SIZE":"MEDIUM","MEAN_ELEMENT_THEORY":"SGP4","ARG_OF_PERICENTER":"109.5027","CENTER_NAME":"EARTH","FILE":"3774172","TLE_LINE2":"2 51974  53.2189  52.6376 0001242 109.5027 250.6099 15.08856589 50919","TIME_SYSTEM":"UTC","ELEMENT_SET_NO":"999","ECCENTRICITY":"0.00012420","REV_AT_EPOCH":"5091","DECAY_DATE":null,"OBJECT_ID":"2022-025U","EPHEMERIS_TYPE":"0","MEAN_MOTION_DDOT":"0.0000000000000","BSTAR":"0.00008616300000","MEAN_ANOMALY":"250.6099","REF_FRAME":"TEME","RA_OF_ASC_NODE":"52.6376","SEMIMAJOR_AXIS":"6917.830","OBJECT_TYPE":"PAYLOAD"},{"ARG_OF_PERICENTER":"93.2076","CENTER_NAME":"EARTH","FILE":"3774172","TLE_LINE2":"2 51975  53.2154  52.5955 0001517  93.2076 266.9090 15.10480818 50925","ELEMENT_SET_NO":"999","ECCENTRICITY":"0.00015170","TIME_SYSTEM":"UTC","OBJECT_ID":"2022-025V","DECAY_DATE":null,"EPHEMERIS_TYPE":"0","REV_AT_EPOCH":"5092","MEAN_ANOMALY":"266.9090","MEAN_MOTION_DDOT":"0.0000000000000","BSTAR":"0.00021124000000","OBJECT_TYPE":"PAYLOAD","SEMIMAJOR_AXIS":"6912.870","REF_FRAME":"TEME","RA_OF_ASC_NODE":"52.5955","COUNTRY_CODE":"US","GP_ID":"224558234","OBJECT_NAME":"STARLINK-3674","INCLINATION":"53.2154","MEAN_MOTION":"15.10480818","PERIAPSIS":"533.686","APOAPSIS":"535.783","EPOCH":"2023-02-05T17:52:26.294592","MEAN_MOTION_DOT":"0.00003226","TLE_LINE1":"1 51975U 22025V   23036.74474878  .00003226  00000-0  21124-3 0  9997","SITE":"AFETR","LAUNCH_DATE":"2022-03-09","CLASSIFICATION_TYPE":"U","NORAD_CAT_ID":"51975","PERIOD":"95.334","MEAN_ELEMENT_THEORY":"SGP4","RCS_SIZE":"LARGE"},{"COUNTRY_CODE":"US","OBJECT_NAME":"STARLINK-3663","GP_ID":"224534766","MEAN_MOTION":"15.08826940","PERIAPSIS":"538.788","INCLINATION":"53.2159","EPOCH":"2023-02-05T10:02:05.094528","APOAPSIS":"540.782","TLE_LINE1":"1 51976U 22025W   23036.41811452 -.00001712  00000-0 -89521-4 0  9991","MEAN_MOTION_DOT":"-0.00001712","SITE":"AFETR","LAUNCH_DATE":"2022-03-09","CLASSIFICATION_TYPE":"U","NORAD_CAT_ID":"51976","PERIOD":"95.438","MEAN_ELEMENT_THEORY":"SGP4","RCS_SIZE":"LARGE","ARG_OF_PERICENTER":"106.8343","FILE":"3774127","CENTER_NAME":"EARTH","TLE_LINE2":"2 51976  53.2159  64.1318 0001441 106.8343 253.2807 15.08826940 51841","ECCENTRICITY":"0.00014410","ELEMENT_SET_NO":"999","TIME_SYSTEM":"UTC","EPHEMERIS_TYPE":"0","DECAY_DATE":null,"OBJECT_ID":"2022-025W","REV_AT_EPOCH":"5184","MEAN_ANOMALY":"253.2807","BSTAR":"-0.00008952100000","MEAN_MOTION_DDOT":"0.0000000000000","OBJECT_TYPE":"PAYLOAD","SEMIMAJOR_AXIS":"6917.920","RA_OF_ASC_NODE":"64.1318","REF_FRAME":"TEME"},{"OBJECT_NAME":"STARLINK-3660","GP_ID":"224559221","COUNTRY_CODE":"US","PERIAPSIS":"539.017","MEAN_MOTION":"15.08829538","INCLINATION":"53.2148","TLE_LINE1":"1 51977U 22025X   23036.74746374  .00001824  00000-0  13271-3 0  9998","MEAN_MOTION_DOT":"0.00001824","EPOCH":"2023-02-05T17:56:20.867136","APOAPSIS":"540.538","LAUNCH_DATE":"2022-03-09","SITE":"AFETR","CLASSIFICATION_TYPE":"U","PERIOD":"95.438","NORAD_CAT_ID":"51977","RCS_SIZE":"LARGE","MEAN_ELEMENT_THEORY":"SGP4","ARG_OF_PERICENTER":"90.2518","FILE":"3774172","CENTER_NAME":"EARTH","TLE_LINE2":"2 51977  53.2148  42.6569 0001099  90.2518 269.8600 15.08829538 51051","TIME_SYSTEM":"UTC","ECCENTRICITY":"0.00010990","ELEMENT_SET_NO":"999","REV_AT_EPOCH":"5105","EPHEMERIS_TYPE":"0","OBJECT_ID":"2022-025X","DECAY_DATE":null,"BSTAR":"0.00013271000000","MEAN_MOTION_DDOT":"0.0000000000000","MEAN_ANOMALY":"269.8600","RA_OF_ASC_NODE":"42.6569","REF_FRAME":"TEME","SEMIMAJOR_AXIS":"6917.912","OBJECT_TYPE":"PAYLOAD"},{"OBJECT_TYPE":"PAYLOAD","SEMIMAJOR_AXIS":"6914.924","REF_FRAME":"TEME","RA_OF_ASC_NODE":"62.3628","MEAN_ANOMALY":"282.8585","MEAN_MOTION_DDOT":"0.0000000000000","BSTAR":"0.00034762000000","OBJECT_ID":"2022-025Y","DECAY_DATE":null,"EPHEMERIS_TYPE":"0","REV_AT_EPOCH":"5078","ELEMENT_SET_NO":"999","ECCENTRICITY":"0.00023610","TIME_SYSTEM":"UTC","TLE_LINE2":"2 51978  53.2179  62.3628 0002361  77.2671 282.8585 15.09807576 50784","FILE":"3774172","CENTER_NAME":"EARTH","ARG_OF_PERICENTER":"77.2671","MEAN_ELEMENT_THEORY":"SGP4","RCS_SIZE":"LARGE","NORAD_CAT_ID":"51978","PERIOD":"95.376","CLASSIFICATION_TYPE":"U","SITE":"AFETR","LAUNCH_DATE":"2022-03-09","APOAPSIS":"538.422","EPOCH":"2023-02-05T19:09:49.521312","MEAN_MOTION_DOT":"0.00005395","TLE_LINE1":"1 51978U 22025Y   23036.79848983  .00005395  00000-0  34762-3 0  9998","INCLINATION":"53.2179","PERIAPSIS":"535.157","MEAN_MOTION":"15.09807576","COUNTRY_CODE":"US","GP_ID":"224557984","OBJECT_NAME":"STARLINK-3666"},{"CLASSIFICATION_TYPE":"U","MEAN_ELEMENT_THEORY":"SGP4","RCS_SIZE":"LARGE","NORAD_CAT_ID":"51979","PERIOD":"95.437","INCLINATION":"53.2147","PERIAPSIS":"538.686","MEAN_MOTION":"15.08844694","COUNTRY_CODE":"US","GP_ID":"224495590","OBJECT_NAME":"STARLINK-3656","SITE":"AFETR","LAUNCH_DATE":"2022-03-09","APOAPSIS":"540.776","EPOCH":"2023-02-05T13:18:08.623008","MEAN_MOTION_DOT":"0.00002560","TLE_LINE1":"1 51979U 22025Z   23036.55426647  .00002560  00000-0  17884-3 0  9999","DECAY_DATE":null,"OBJECT_ID":"2022-025Z","EPHEMERIS_TYPE":"0","REV_AT_EPOCH":"5075","ELEMENT_SET_NO":"999","ECCENTRICITY":"0.00015100","TIME_SYSTEM":"UTC","SEMIMAJOR_AXIS":"6917.866","OBJECT_TYPE":"PAYLOAD","REF_FRAME":"TEME","RA_OF_ASC_NODE":"63.5243","MEAN_ANOMALY":"265.9074","MEAN_MOTION_DDOT":"0.0000000000000","BSTAR":"0.00017884000000","ARG_OF_PERICENTER":"94.2091","TLE_LINE2":"2 51979  53.2147  63.5243 0001510  94.2091 265.9074 15.08844694 50759","FILE":"3773728","CENTER_NAME":"EARTH"},{"OBJECT_TYPE":"PAYLOAD","SEMIMAJOR_AXIS":"6917.874","REF_FRAME":"TEME","RA_OF_ASC_NODE":"62.4251","MEAN_ANOMALY":"275.3024","BSTAR":"0.00004205000000","MEAN_MOTION_DDOT":"0.0000000000000","EPHEMERIS_TYPE":"0","DECAY_DATE":null,"OBJECT_ID":"2022-025AA","REV_AT_EPOCH":"5078","ECCENTRICITY":"0.00013840","ELEMENT_SET_NO":"999","TIME_SYSTEM":"UTC","TLE_LINE2":"2 51980  53.2180  62.4251 0001384  84.8127 275.3024 15.08841986 50783","FILE":"3774172","CENTER_NAME":"EARTH","ARG_OF_PERICENTER":"84.8127","MEAN_ELEMENT_THEORY":"SGP4","RCS_SIZE":"LARGE","NORAD_CAT_ID":"51980","PERIOD":"95.437","CLASSIFICATION_TYPE":"U","SITE":"AFETR","LAUNCH_DATE":"2022-03-09","EPOCH":"2023-02-05T19:07:53.609664","APOAPSIS":"540.697","TLE_LINE1":"1 51980U 22025AA  23036.79714826  .00000381  00000-0  42050-4 0  9999","MEAN_MOTION_DOT":"0.00000381","MEAN_MOTION":"15.08841986","PERIAPSIS":"538.782","INCLINATION":"53.2180","COUNTRY_CODE":"US","OBJECT_NAME":"STARLINK-3649","GP_ID":"224558986"},{"EPOCH":"2023-02-05T08:21:23.220288","APOAPSIS":"540.729","TLE_LINE1":"1 51981U 22025AB  23036.34818542  .00000147  00000-0  27356-4 0  9993","MEAN_MOTION_DOT":"0.00000147","SITE":"AFETR","LAUNCH_DATE":"2022-03-09","COUNTRY_CODE":"US","OBJECT_NAME":"STARLINK-3635","GP_ID":"224496583","MEAN_MOTION":"15.08843990","PERIAPSIS":"538.737","INCLINATION":"53.2172","NORAD_CAT_ID":"51981","PERIOD":"95.437","MEAN_ELEMENT_THEORY":"SGP4","RCS_SIZE":"LARGE","CLASSIFICATION_TYPE":"U","CENTER_NAME":"EARTH","FILE":"3773728","TLE_LINE2":"2 51981  53.2172  64.4346 0001440 105.4803 254.6349 15.08843990 50716","ARG_OF_PERICENTER":"105.4803","MEAN_ANOMALY":"254.6349","BSTAR":"0.00002735600000","MEAN_MOTION_DDOT":"0.0000000000000","OBJECT_TYPE":"PAYLOAD","SEMIMAJOR_AXIS":"6917.868","REF_FRAME":"TEME","RA_OF_ASC_NODE":"64.4346","ECCENTRICITY":"0.00014400","ELEMENT_SET_NO":"999","TIME_SYSTEM":"UTC","EPHEMERIS_TYPE":"0","DECAY_DATE":null,"OBJECT_ID":"2022-025AB","REV_AT_EPOCH":"5071"}];
